[
    {
        "Altitude(m)": 555737.2580980556,
        "Argument of Periapsis(deg)": 0.033114955553567506,
        "Eccentricity": 0.0,
        "Inclination(deg)": 53.0,
        "Latitude(deg)": -8.48926351551075,
        "Longitude(deg)": -67.5652977585656,
        "Mean Anomaly(deg)": -169.54193566211202,
        "RAAN(deg)": 209.9507168426401,
        "Satellite Name": "Starlink Shell 1 932",
        "Satellite Number": 932,
        "Semi-Major Axis(m)": 6931778.249405717,
        "Time(s)": 950
    },
    {
        "Altitude(m)": 555848.864925886,
        "Argument of Periapsis(deg)": 0.03346353403307874,
        "Eccentricity": 0.0,
        "Inclination(deg)": 53.0,
        "Latitude(deg)": -8.989535103814639,
        "Longitude(deg)": -67.22124256171233,
        "Mean Anomaly(deg)": -168.91510445855533,
        "RAAN(deg)": 209.95019807256264,
        "Satellite Name": "Starlink Shell 1 932",
        "Satellite Number": 932,
        "Semi-Major Axis(m)": 6931778.249405717,
        "Time(s)": 960
    },
    {
        "Altitude(m)": 555962.9122985601,
        "Argument of Periapsis(deg)": 0.03381211251258998,
        "Eccentricity": 0.0,
        "Inclination(deg)": 53.0,
        "Latitude(deg)": -9.489377013649912,
        "Longitude(deg)": -66.87613945674424,
        "Mean Anomaly(deg)": -168.28827325499861,
        "RAAN(deg)": 209.94967930248515,
        "Satellite Name": "Starlink Shell 1 932",
        "Satellite Number": 932,
        "Semi-Major Axis(m)": 6931778.249405717,
        "Time(s)": 970
    },
    {
        "Altitude(m)": 556079.3682132858,
        "Argument of Periapsis(deg)": 0.034160690992101214,
        "Eccentricity": 0.0,
        "Inclination(deg)": 53.0,
        "Latitude(deg)": -9.988764397619732,
        "Longitude(deg)": -66.52992673331612,
        "Mean Anomaly(deg)": -167.66144205144192,
        "RAAN(deg)": 209.9491605324077,
        "Satellite Name": "Starlink Shell 1 932",
        "Satellite Number": 932,
        "Semi-Major Axis(m)": 6931778.249405717,
        "Time(s)": 980
    },
    {
        "Altitude(m)": 556198.1994539109,
        "Argument of Periapsis(deg)": 0.034509269471612446,
        "Eccentricity": 0.0,
        "Inclination(deg)": 53.0,
        "Latitude(deg)": -10.487672179307712,
        "Longitude(deg)": -66.18254169941396,
        "Mean Anomaly(deg)": -167.03461084788523,
        "RAAN(deg)": 209.94864176233023,
        "Satellite Name": "Starlink Shell 1 932",
        "Satellite Number": 932,
        "Semi-Major Axis(m)": 6931778.249405717,
        "Time(s)": 990
    }
]